{
  "norad_id": 68481,
  "name": "TRANSPORTER-16 OBJECT BT",
  "history": [
    {
      "epoch": "2026-04-13T22:05:00.088224Z",
      "apogee_km": 594.2330444765194,
      "perigee_km": 589.398685169479,
      "latitude_deg": 1.5155157759313794e-05,
      "longitude_deg": -110.15186966316514,
      "height_km": 596.7259167888373,
      "semi_major_axis_km": 6969.952864822999,
      "eccentricity": 0.0003468,
      "inclination_deg": 97.7618,
      "raan_deg": 63.2025,
      "arg_perigee_deg": 140.7319,
      "mean_anomaly_deg": 219.4152,
      "mean_motion_rev_day": 14.91962819
    }
  ]
}