{"fetched_at":"2026-04-16T06:04:01Z","count":5425,"tles":[{"name":"TRANSPORTER-16 OBJECT BT","line1":"1 68481U 26067BT  26103.92013991  .00001268  00000+0  13069-3 0  9992","line2":"2 68481  97.7618  63.2025 0003468 140.7319 219.4152 14.91962819  2142","category":"Other"}]}